{
  "norad_id": 46160,
  "name": "STARLINK-1598",
  "history": [
    {
      "epoch": "2026-03-28T22:00:01.999584Z",
      "apogee_km": 406.20596457031115,
      "perigee_km": 398.0171871552984,
      "latitude_deg": 52.44980953642897,
      "longitude_deg": 137.8962716846335,
      "height_km": 411.14785048060895,
      "semi_major_axis_km": 6780.2485758628045,
      "eccentricity": 0.00060387,
      "inclination_deg": 53.049,
      "raan_deg": 190.9084,
      "arg_perigee_deg": 327.1572,
      "mean_anomaly_deg": 130.8853,
      "mean_motion_rev_day": 15.55014123
    },
    {
      "epoch": "2026-03-29T00:00:01.999296Z",
      "apogee_km": 406.1535791523702,
      "perigee_km": 397.9847867431554,
      "latitude_deg": -19.734423735096442,
      "longitude_deg": -160.35068107968155,
      "height_km": 409.69591886736305,
      "semi_major_axis_km": 6780.2061829477625,
      "eccentricity": 0.0006024,
      "inclination_deg": 53.0493,
      "raan_deg": 190.5049,
      "arg_perigee_deg": 326.7546,
      "mean_anomaly_deg": 238.0609,
      "mean_motion_rev_day": 15.55028707
    }
  ]
}